$$SOE
2460721.500000000, A.D. 2025-Feb-15 00:00:00.0000, 2.849804487951731E+08, 3.397942808924438E+08, -1.365975739384735E+07,
2460728.500000000, A.D. 2025-Feb-22 00:00:00.0000, 2.762815818515878E+08, 3.453647996339365E+08, -1.123705314194559E+07,
2460735.500000000, A.D. 2025-Mar-01 00:00:00.0000, 2.674277604055139E+08, 3.507418378064643E+08, -8.808048616136774E+06,
2460742.500000000, A.D. 2025-Mar-08 00:00:00.0000, 2.584226536333690E+08, 3.559206866765341E+08, -6.374064214477986E+06,
2460749.500000000, A.D. 2025-Mar-15 00:00:00.0000, 2.492700937318318E+08, 3.608966862956271E+08, -3.936446514574021E+06,
2460756.500000000, A.D. 2025-Mar-22 00:00:00.0000, 2.399740754678674E+08, 3.656652319073142E+08, -1.496567626817852E+06,
2460763.500000000, A.D. 2025-Mar-29 00:00:00.0000, 2.305387569013604E+08, 3.702217783278254E+08, 9.441752117316723E+05,
2460770.500000000, A.D. 2025-Apr-05 00:00:00.0000, 2.209684615897925E+08, 3.745618454350426E+08, 3.384360032129109E+06,
2460777.500000000, A.D. 2025-Apr-12 00:00:00.0000, 2.112676803298870E+08, 3.786810248636404E+08, 5.822540704953760E+06,
2460784.500000000, A.D. 2025-Apr-19 00:00:00.0000, 2.014410722292823E+08, 3.825749870188956E+08, 8.257247636308551E+06,
2460791.500000000, A.D. 2025-Apr-26 00:00:00.0000, 1.914934653604492E+08, 3.862394881991527E+08, 1.068698854956937E+07,
2460798.500000000, A.D. 2025-May-03 00:00:00.0000, 1.814298570910230E+08, 3.896703778376053E+08, 1.311024934657484E+07,
2460805.500000000, A.D. 2025-May-10 00:00:00.0000, 1.712554140994717E+08, 3.928636058618710E+08, 1.552549504875973E+07,
2460812.500000000, A.D. 2025-May-17 00:00:00.0000, 1.609754720930312E+08, 3.958152301184542E+08, 1.793117081377849E+07,
2460819.500000000, A.D. 2025-May-24 00:00:00.0000, 1.505955353819982E+08, 3.985214237942312E+08, 2.032570300931081E+07,
2460826.500000000, A.D. 2025-May-31 00:00:00.0000, 1.401212767087582E+08, 4.009784831314836E+08, 2.270750033305547E+07,
2460833.500000000, A.D. 2025-Jun-07 00:00:00.0000, 1.295585369128044E+08, 4.031828366250634E+08, 2.507495511569339E+07,
2460840.500000000, A.D. 2025-Jun-14 00:00:00.0000, 1.189133220493991E+08, 4.051310550131584E+08, 2.742644497015485E+07,
2460847.500000000, A.D. 2025-Jun-21 00:00:00.0000, 1.081917991576207E+08, 4.068198587674493E+08, 2.976033440916511E+07,
2460854.500000000, A.D. 2025-Jun-28 00:00:00.0000, 9.740029378853106E+07, 4.082461248287947E+08, 3.207497628921500E+07,
2460861.500000000, A.D. 2025-Jul-05 00:00:00.0000, 8.654528776310654E+07, 4.094068947214543E+08, 3.436871339623320E+07,
2460868.500000000, A.D. 2025-Jul-12 00:00:00.0000, 7.563341595415325E+07, 4.102993832126073E+08, 3.663988021577018E+07,
2460875.500000000, A.D. 2025-Jul-19 00:00:00.0000, 6.467146226769281E+07, 4.109209869136658E+08, 3.888680482233709E+07,
2460882.500000000, A.D. 2025-Jul-26 00:00:00.0000, 5.366635502163101E+07, 4.112692927374279E+08, 4.110781086255983E+07,
2460889.500000000, A.D. 2025-Aug-02 00:00:00.0000, 4.262516177696887E+07, 4.113420862019330E+08, 4.330121962592056E+07,
2460896.500000000, A.D. 2025-Aug-09 00:00:00.0000, 3.155508363694122E+07, 4.111373595342653E+08, 4.546535219721627E+07,
2460903.500000000, A.D. 2025-Aug-16 00:00:00.0000, 2.046344908533533E+07, 4.106533194777658E+08, 4.759853167544705E+07,
2460910.500000000, A.D. 2025-Aug-23 00:00:00.0000, 9.357707653536431E+06, 4.098883947847632E+08, 4.969908543003494E+07,
2460917.500000000, A.D. 2025-Aug-30 00:00:00.0000, -1.754576254777585E+06, 4.088412440739528E+08, 5.176534741838625E+07,
2460924.500000000, A.D. 2025-Sep-06 00:00:00.0000, -1.286573079467885E+07, 4.075107650166548E+08, 5.379566077152789E+07,
2460931.500000000, A.D. 2025-Sep-13 00:00:00.0000, -2.396798702886721E+07, 4.058961023263268E+08, 5.578838059113300E+07,
2460938.500000000, A.D. 2025-Sep-20 00:00:00.0000, -3.505348891541851E+07, 4.039966528614150E+08, 5.774187651543990E+07,
2460945.500000000, A.D. 2025-Sep-27 00:00:00.0000, -4.611430186854250E+07, 4.018120709157801E+08, 5.965453520408979E+07,
2460952.500000000, A.D. 2025-Oct-04 00:00:00.0000, -5.714242189536614E+07, 3.993422741996343E+08, 6.152476296329185E+07,
2460959.500000000, A.D. 2025-Oct-11 00:00:00.0000, -6.812978566557348E+07, 3.965874495312309E+08, 6.335098846055532E+07,
2460966.500000000, A.D. 2025-Oct-18 00:00:00.0000, -7.906828120923036E+07, 3.935480579301785E+08, 6.513166547237946E+07,
2460973.500000000, A.D. 2025-Oct-25 00:00:00.0000, -8.994975907749727E+07, 3.902248390893403E+08, 6.686527564405890E+07,
2460980.500000000, A.D. 2025-Nov-01 00:00:00.0000, -1.007660438973401E+08, 3.866188152066721E+08, 6.855033124934666E+07,
2460987.500000000, A.D. 2025-Nov-08 00:00:00.0000, -1.115089462534125E+08, 3.827312941119876E+08, 7.018537793355732E+07,
2460994.500000000, A.D. 2025-Nov-15 00:00:00.0000, -1.221702747144426E+08, 3.785638715979707E+08, 7.176899741059886E+07,
2461001.500000000, A.D. 2025-Nov-22 00:00:00.0000, -1.327418475643267E+08, 3.741184331456876E+08, 7.329981008360101E+07,
2461008.500000000, A.D. 2025-Nov-29 00:00:00.0000, -1.432155043521347E+08, 3.693971561535901E+08, 7.477647768477228E+07,
2461015.500000000, A.D. 2025-Dec-06 00:00:00.0000, -1.535831194958625E+08, 3.644025125130193E+08, 7.619770612138671E+07,
2461022.500000000, A.D. 2025-Dec-13 00:00:00.0000, -1.638366174579908E+08, 3.591372681385252E+08, 7.756224820066585E+07,
2461029.500000000, A.D. 2025-Dec-20 00:00:00.0000, -1.739679859529585E+08, 3.536044804548126E+08, 7.886890598456603E+07,
2461036.500000000, A.D. 2025-Dec-27 00:00:00.0000, -1.839692882145992E+08, 3.478074964212105E+08, 8.011653307463534E+07,
2461043.500000000, A.D. 2026-Jan-03 00:00:00.0000, -1.938326757311625E+08, 3.417499504725589E+08, 8.130403690022582E+07,
2461050.500000000, A.D. 2026-Jan-10 00:00:00.0000, -2.035504012844303E+08, 3.354357616928412E+08, 8.243038093360434E+07,
2461057.500000000, A.D. 2026-Jan-17 00:00:00.0000, -2.131148320066859E+08, 3.288691301290472E+08, 8.349458679245780E+07,
2461064.500000000, A.D. 2026-Jan-24 00:00:00.0000, -2.225184623237484E+08, 3.220545322715481E+08, 8.449573621413742E+07,
2461071.500000000, A.D. 2026-Jan-31 00:00:00.0000, -2.317539267069972E+08, 3.149967157014478E+08, 8.543297288889417E+07,
2461078.500000000, A.D. 2026-Feb-07 00:00:00.0000, -2.408140121201548E+08, 3.077006928596725E+08, 8.630550413241874E+07,
2461085.500000000, A.D. 2026-Feb-14 00:00:00.0000, -2.496916698565120E+08, 3.001717339390173E+08, 8.711260236482979E+07,
2461092.500000000, A.D. 2026-Feb-21 00:00:00.0000, -2.583800263297307E+08, 2.924153594972555E+08, 8.785360640058760E+07,
2461099.500000000, A.D. 2026-Feb-28 00:00:00.0000, -2.668723938567218E+08, 2.844373339712781E+08, 8.852792273765470E+07,
2461106.500000000, A.D. 2026-Mar-07 00:00:00.0000, -2.751622834464532E+08, 2.762436581755383E+08, 8.913502687159218E+07,
2461113.500000000, A.D. 2026-Mar-14 00:00:00.0000, -2.832434167715253E+08, 2.678405584871737E+08, 8.967446418508129E+07,
2461120.500000000, A.D. 2026-Mar-21 00:00:00.0000, -2.911097354958200E+08, 2.592344756492686E+08, 9.014585048175189E+07,
2461127.500000000, A.D. 2026-Mar-28 00:00:00.0000, -2.987554099320117E+08, 2.504320542614118E+08, 9.054887243110022E+07,
2461134.500000000, A.D. 2026-Apr-04 00:00:00.0000, -3.061748475980957E+08, 2.414401320379351E+08, 9.088328790042010E+07,
2461141.500000000, A.D. 2026-Apr-11 00:00:00.0000, -3.133627013660170E+08, 2.322657285202131E+08, 9.114892611869492E+07,
2461148.500000000, A.D. 2026-Apr-18 00:00:00.0000, -3.203138770145299E+08, 2.229160332837918E+08, 9.134568765771404E+07,
2461155.500000000, A.D. 2026-Apr-25 00:00:00.0000, -3.270235401165232E+08, 2.133983937045650E+08, 9.147354422909439E+07,
2461162.500000000, A.D. 2026-May-02 00:00:00.0000, -3.334871222105739E+08, 2.037203023057706E+08, 9.153253829485653E+07,
2461169.500000000, A.D. 2026-May-09 00:00:00.0000, -3.397003261167606E+08, 1.938893836724751E+08, 9.152278247865063E+07,
2461176.500000000, A.D. 2026-May-16 00:00:00.0000, -3.456591300071770E+08, 1.839133811257751E+08, 9.144445875897443E+07,
2461183.500000000, A.D. 2026-May-23 00:00:00.0000, -3.513597901712030E+08, 1.738001442330664E+08, 9.129781752828905E+07,
2461190.500000000, A.D. 2026-May-30 00:00:00.0000, -3.567988445504088E+08, 1.635576175273956E+08, 9.108317674037284E+07,
2461197.500000000, A.D. 2026-Jun-06 00:00:00.0000, -3.619731173612179E+08, 1.531938272159550E+08, 9.080092091377722E+07,
2461204.500000000, A.D. 2026-Jun-13 00:00:00.0000, -3.668797211404803E+08, 1.427168661276594E+08, 9.045149967708997E+07,
2461211.500000000, A.D. 2026-Jun-20 00:00:00.0000, -3.715160567212412E+08, 1.321348798705827E+08, 9.003542614715561E+07,
2461218.500000000, A.D. 2026-Jun-27 00:00:00.0000, -3.758798128548980E+08, 1.214560539041552E+08, 8.955327527776971E+07,
2461225.500000000, A.D. 2026-Jul-04 00:00:00.0000, -3.799689655024539E+08, 1.106886007994644E+08, 8.900568212691233E+07,
2461232.500000000, A.D. 2026-Jul-11 00:00:00.0000, -3.837817765634792E+08, 9.984074760320716E+07, 8.839334001924831E+07,
2461239.500000000, A.D. 2026-Jul-18 00:00:00.0000, -3.873167919734271E+08, 8.892072337507172E+07, 8.771699860745791E+07,
2461246.500000000, A.D. 2026-Jul-25 00:00:00.0000, -3.905728391701478E+08, 7.793674694148768E+07, 8.697746183995950E+07,
2461253.500000000, A.D. 2026-Aug-01 00:00:00.0000, -3.935490239091070E+08, 6.689701485414380E+07, 8.617558583620794E+07,
2461260.500000000, A.D. 2026-Aug-08 00:00:00.0000, -3.962447262422966E+08, 5.580968955047070E+07, 8.531227665655866E+07,
2461267.500000000, A.D. 2026-Aug-15 00:00:00.0000, -3.986595952774991E+08, 4.468288819623437E+07, 8.438848797511204E+07,
2461274.500000000, A.D. 2026-Aug-22 00:00:00.0000, -4.007935435123035E+08, 3.352467345765921E+07, 8.340521883479206E+07,
2461281.500000000, A.D. 2026-Aug-29 00:00:00.0000, -4.026467430682601E+08, 2.234304485283224E+07, 8.236351159241721E+07,
2461288.500000000, A.D. 2026-Sep-05 00:00:00.0000, -4.042196217304776E+08, 1.114592783510068E+07, 8.126444963415746E+07,
$$EOE